{
  "type": "FeatureCollection",
  "name": "Buildings",
  "crs": {
    "type": "name",
    "properties": {
      "name": "EPSG:3006"
    }
  },
  "features": [
    {
      "type": "Feature",
      "geometry": {
        "type": "GeometryCollection",
        "geometries": [
          {
            "type": "MultiPolygon",
            "coordinates": [
              [
                [
                  [21067.057249540125, 31283.654543041685, 18.0],
                  [21063.16201628853, 31281.88544051558, 18.0],
                  [21050.252094613872, 31275.804139114385, 18.0],
                  [21049.250520868783, 31277.683937387515, 18.0],
                  [21042.46168233418, 31274.477432816027, 18.0],
                  [21039.123126194085, 31281.664884784397, 18.0],
                  [21032.668163768507, 31278.568947095202, 18.0],
                  [21018.98006810668, 31307.318764100528, 18.0],
                  [21015.30765336187, 31315.059099276234, 18.0],
                  [21021.540030196476, 31318.044467155712, 18.0],
                  [21019.314323153663, 31322.688668792005, 18.0],
                  [21021.540172942834, 31323.794362660115, 18.0],
                  [21026.437039675224, 31326.116314315834, 18.0],
                  [21025.546762881866, 31328.217259762605, 18.0],
                  [21042.12933054578, 31335.957092721517, 18.0],
                  [21046.13560264027, 31327.55330016813, 18.0],
                  [21048.472592986458, 31322.57737127072, 18.0],
                  [21067.057249540125, 31283.654543041685, 18.0],
                  [21067.057249540125, 31283.654543041685, 18.0]
                ]
              ],
              [
                [
                  [21067.057249540125, 31283.654543041685, 0.0],
                  [21063.16201628853, 31281.88544051558, 0.0],
                  [21050.252094613872, 31275.804139114385, 0.0],
                  [21049.250520868783, 31277.683937387515, 0.0],
                  [21042.46168233418, 31274.477432816027, 0.0],
                  [21039.123126194085, 31281.664884784397, 0.0],
                  [21032.668163768507, 31278.568947095202, 0.0],
                  [21018.98006810668, 31307.318764100528, 0.0],
                  [21015.30765336187, 31315.059099276234, 0.0],
                  [21021.540030196476, 31318.044467155712, 0.0],
                  [21019.314323153663, 31322.688668792005, 0.0],
                  [21021.540172942834, 31323.794362660115, 0.0],
                  [21026.437039675224, 31326.116314315834, 0.0],
                  [21025.546762881866, 31328.217259762605, 0.0],
                  [21042.12933054578, 31335.957092721517, 0.0],
                  [21046.13560264027, 31327.55330016813, 0.0],
                  [21048.472592986458, 31322.57737127072, 0.0],
                  [21067.057249540125, 31283.654543041685, 0.0],
                  [21067.057249540125, 31283.654543041685, 0.0]
                ]
              ]
            ]
          }
        ]
      },
      "properties": {
        "42P_ByggnadsAgare": "HSB bostadsrätt",
        "42P_ByggnadsAgareGruppEnkel": "Bostadsrättsförening",
        "42P_ByggnadsAgareGruppStor": "Stor bostadsrättsförening",
        "43S_ARVARDE": 2000,
        "43S_BYGGAR": 2000,
        "43S_TILLBYAR": "",
        "43T_ARVARDE": "1985",
        "43T_BYGGAR": "1985",
        "43T_TILLBYAR": "",
        "50A_ByggnadsAndamal": "Flerbostadshus",
        "50A_ByggnadsKategori": "Flerbostadshus",
        "50A_UUID": "00000000-0000-0000-0000-000000000000",
        "byggnadsid": 18,
        "Deso": "0180C4440",
        "EgenAntalBolgh": "52",
        "EgenAntalKallarplan": 1,
        "EgenAntalPlan": 6,
        "EgenAntalTrapphus": "3",
        "EgenAtemp": 400,
        "EgenAtempBad": "",
        "EgenAtempBostad": "93",
        "EgenAtempButik": "5",
        "EgenAtempHotell": "",
        "EgenAtempKontor": "2",
        "EgenAtempKopcentrum": "",
        "EgenAtempLivsmedel": "",
        "EgenAtempOvrig": "",
        "EgenAtempOvrigaVad": "",
        "EgenAtempRestaurang": "",
        "EgenAtempSkolor": "",
        "EgenAtempSumma": 100,
        "EgenAtempTeater": "",
        "EgenAtempVard": "",
        "EgenAtempVardDag": "",
        "EgenAvarmgarage": "0",
        "EgenBOA": null,
        "EgenBRA": null,
        "EgenBTA": null,
        "EgenByggnadsKat": "Flerbostadshus",
        "EgenByggnadsTyp": "Friliggande",
        "EgenGruppAtemp": null,
        "EgenInstEleffektStorre": "Ja",
        "EgenKomplexitet": "Enkel",
        "EgenLOA": null,
        "EgenNybyggAr": 1999,
        "EgenProjVentFlode": "0.35000000000000003",
        "EgenSarskiltVardefull": null,
        "EgenSkyddadByggnad": null,
        "EgenSkyddadEllerVardefull": "0",
        "EgenSmaLagenheter": "Nej",
        "EgenTypkod": "320",
        "EgenTypkod_typ": "320 - Hyreshusenhet, bostäder",
        "EgiBeraknatVarde": "Nej",
        "EgiBerElProduktion": "",
        "EgiBerEngProduktion": "",
        "EgiElDirekt": null,
        "EgiElDirektUPPV": 0,
        "EgiElLuft": null,
        "EgiElLuftUPPV": 0,
        "EgiElVatten": null,
        "EgiElVattenUPPV": 154313,
        "EgiElVV": 80243,
        "EgiEnergianvandning": 389134,
        "EgiEnergiklass": "D",
        "EgiEnergiPrestanda": 71,
        "EgiFastighet": 46759,
        "EgiFjarrkyla": 0,
        "EgiFjarrvarme": null,
        "EgiFjarrvarmeUPPV": 0,
        "EgiFjarrvarmeVV": 0,
        "EgiFlis": null,
        "EgiFlisUPPV": 0,
        "EgiFlisVV": 0,
        "EgiForstaArManad": "1801",
        "EgiGas": null,
        "EgiGasUPPV": 0,
        "EgiGasVV": 0,
        "EgiGruppElDirekt": null,
        "EgiGruppElLuft": null,
        "EgiGruppElVatten": null,
        "EgiGruppFastighet": null,
        "EgiGruppFjarrkyla": null,
        "EgiGruppFjarrvarme": null,
        "EgiGruppFlis": null,
        "EgiGruppGas": null,
        "EgiGruppHushall": null,
        "EgiGruppKomfort": null,
        "EgiGruppOlja": null,
        "EgiGruppOvrBiobransle": null,
        "EgiGruppPumpFranluft": null,
        "EgiGruppPumpLuftLuft": null,
        "EgiGruppPumpLuftVatten": null,
        "EgiGruppPumpMark": null,
        "EgiGruppSolcell": "Nej",
        "EgiGruppSolvarme": "Nej",
        "EgiGruppVed": null,
        "EgiGruppVerksamhet": null,
        "EgiGruppVVBered": null,
        "EgiHushall": "",
        "EgiKomfort": 0,
        "EgiKomfortTillagg": null,
        "EgiNormKorrEI": null,
        "EgiNormKorrGD": null,
        "EgiOlja": null,
        "EgiOljaUPPV": 2199,
        "EgiOljaVV": 0,
        "EgiOvrBiobransle": null,
        "EgiOvrBiobransleUPPV": 0,
        "EgiOvrBiobransleVV": 0,
        "EgiPrimarenergianvandning": 621082,
        "EgiPrimarenergital": 114,
        "EgiPumpFranluft": null,
        "EgiPumpFranluftUPPV": 69053,
        "EgiPumpLuftLuft": null,
        "EgiPumpLuftLuftUPPV": 0,
        "EgiPumpLuftVatten": null,
        "EgiPumpLuftVattenUPPV": 0,
        "EgiPumpMark": null,
        "EgiPumpMarkUPPV": 0,
        "EgiRefvarde1": 85,
        "EgiRefvarde2Max": 159,
        "EgiRefvarde2Min": null,
        "EgiRefvarde3": "",
        "EgiSistaArManad": "1812",
        "EgiSolcell": "",
        "EgiSolvarme": "",
        "EgiStationEI": "Stockholm-Bromma",
        "EgiStationGD": null,
        "EgiSumma1": null,
        "EgiSumma2": 352567,
        "EgiSumma3": null,
        "EgiSumma4": null,
        "EgiVaravEl": null,
        "EgiVed": null,
        "EgiVedUPPV": 0,
        "EgiVedVV": 0,
        "EgiVerksamhet": "",
        "EgiVersion": 2019,
        "EgiVVBered": null,
        "FNR": "010433983",
        "Footprint_area_Sweref": 2100.5929435170438,
        "FormularId": 928104,
        "Godkand": "2019-03-27",
        "height": 18,
        "IdAdr": "Svartviksslingan 104",
        "IdEgnaHem": "0",
        "IdFastBet": "Sandvik 15",
        "IdHusnr": 1,
        "IdHuvudadress": "Nej",
        "IdKommun": "Stockholm",
        "IdKommunkod": "80",
        "IdLan": "Stockholms län",
        "IdLankod": "01",
        "IdPostnr": "16739",
        "IdPostort": "Bromma",
        "IdRapportLM": "",
        "LuftGruppFinnsluft": "Nej",
        "vaggid": "V17;V18;V21;V83;V86;V170;V171;V183;V289;V292;V381;V388;V452;V453;V454;V455;V503;V309;V310;V449;V504;V43;V44;V125;V126;V129;V130;V131;V132;V134;V135;V136;V138;V307;V325;V67;V94;V105;V106;V107;V108;V139;V140;V141;V142;V219;V221;V222;V223;V224;V225;V251;V252;V354;V355;V356;V372;V373;V375;V434;V435;V446;V89;V507;V308;V6;V7;V68;V87;V88;V253;V257;V374;V502;V143;V144;V305;V445;V376;V3;V4;V5;V26;V184;V207;V343;V25;V19;V22;V84;V187;V188;V189;V227;V274;V275;V276;V380;V127;V306",
        "VentDelvisProcent": "",
        "VentGruppGodkand": "Ja",
        "VentGruppKrav": "Ja",
        "VentTypF": "Nej",
        "VentTypFmed": "Ja",
        "VentTypFT": "Nej",
        "VentTypFTX": "Nej",
        "VentTypSjalvdrag": "Nej",
        "Version": "2.6"
      }
    }
  ]
}