{
  "type": "FeatureCollection",
  "name": "Buildings",
  "crs": {
    "type": "name",
    "properties": {
      "name": "EPSG:3006"
    }
  },
  "features": [
    {
      "type": "Feature",
      "geometry": {
        "type": "GeometryCollection",
        "geometries": [
          {
            "type": "MultiPolygon",
            "coordinates": [
              [
                [
                  [670008.0199992212, 6581734.767937349, 17.6],
                  [670002.4930036601, 6581741.162936308, 17.6],
                  [669995.9160011099, 6581735.479934, 17.6],
                  [670001.4299996259, 6581729.059932756, 17.6],
                  [669998.3700005211, 6581726.482939802, 17.6],
                  [670004.9920040739, 6581718.773933019, 17.6],
                  [670012.8360024993, 6581725.60593223, 17.6],
                  [670016.0589998409, 6581722.047939299, 17.6],
                  [670021.0870008179, 6581726.3509332575, 17.6],
                  [670017.9040042162, 6581729.96793385, 17.6],
                  [670030.3240036318, 6581740.675938265, 17.6],
                  [670033.5270039735, 6581736.9959411435, 17.6],
                  [670038.6090022208, 6581741.345934353, 17.6],
                  [670035.4100017908, 6581745.048932749, 17.6],
                  [670041.6020015418, 6581750.331935599, 17.6],
                  [670035.0420037246, 6581757.997936454, 17.6],
                  [670032.0000031579, 6581755.400936936, 17.6],
                  [670025.5760022652, 6581762.907941033, 17.6],
                  [670018.4480029017, 6581756.791931905, 17.6],
                  [670024.8939997354, 6581749.3089418495, 17.6],
                  [670008.0199992212, 6581734.767937349, 17.6]
                ]
              ],
              [
                [
                  [670008.0199992212, 6581734.767937349, 0.0],
                  [670002.4930036601, 6581741.162936308, 0.0],
                  [669995.9160011099, 6581735.479934, 0.0],
                  [670001.4299996259, 6581729.059932756, 0.0],
                  [669998.3700005211, 6581726.482939802, 0.0],
                  [670004.9920040739, 6581718.773933019, 0.0],
                  [670012.8360024993, 6581725.60593223, 0.0],
                  [670016.0589998409, 6581722.047939299, 0.0],
                  [670021.0870008179, 6581726.3509332575, 0.0],
                  [670017.9040042162, 6581729.96793385, 0.0],
                  [670030.3240036318, 6581740.675938265, 0.0],
                  [670033.5270039735, 6581736.9959411435, 0.0],
                  [670038.6090022208, 6581741.345934353, 0.0],
                  [670035.4100017908, 6581745.048932749, 0.0],
                  [670041.6020015418, 6581750.331935599, 0.0],
                  [670035.0420037246, 6581757.997936454, 0.0],
                  [670032.0000031579, 6581755.400936936, 0.0],
                  [670025.5760022652, 6581762.907941033, 0.0],
                  [670018.4480029017, 6581756.791931905, 0.0],
                  [670024.8939997354, 6581749.3089418495, 0.0],
                  [670008.0199992212, 6581734.767937349, 0.0]
                ]
              ]
            ]
          }
        ]
      },
      "properties": {
        "42P_ByggnadsAgare": "HSB bostadsrätt",
        "42P_ByggnadsAgareGruppEnkel": "Bostadsrättsförening",
        "42P_ByggnadsAgareGruppStor": "Stor bostadsrättsförening",
        "43S_ARVARDE": 1985.0,
        "43S_BYGGAR": 1985.0,
        "43S_TILLBYAR": 2018.0,
        "43T_ARVARDE": 1985.0,
        "43T_BYGGAR": 1985.0,
        "43T_TILLBYAR": 2018.0,
        "50A_ByggnadsAndamal": "Flerbostadshus",
        "50A_ByggnadsKategori": "Flerbostadshus",
        "50A_UUID": "916c8c38-37cf-4903-a77f-79430f98e92f",
        "byggnadsid": 18,
        "Deso": "0180C4440",
        "EgenAntalBolgh": 31.0,
        "EgenAntalKallarplan": 1.0,
        "EgenAntalPlan": 5.0,
        "EgenAntalTrapphus": 2.0,
        "EgenAtemp": 3683,
        "EgenAtempBad": "",
        "EgenAtempBostad": 87.0,
        "EgenAtempButik": "",
        "EgenAtempHotell": "",
        "EgenAtempKontor": 2.0,
        "EgenAtempKopcentrum": "",
        "EgenAtempLivsmedel": "",
        "EgenAtempOvrig": "",
        "EgenAtempOvrigaVad": null,
        "EgenAtempRestaurang": "",
        "EgenAtempSkolor": 11.0,
        "EgenAtempSumma": 100,
        "EgenAtempTeater": "",
        "EgenAtempVard": "",
        "EgenAtempVardDag": "",
        "EgenAvarmgarage": null,
        "EgenBOA": null,
        "EgenBRA": null,
        "EgenBTA": null,
        "EgenByggnadsKat": "Flerbostadshus",
        "EgenByggnadsTyp": "Friliggande",
        "EgenGruppAtemp": null,
        "EgenInstEleffektStorre": "Ja",
        "EgenKomplexitet": "Enkel",
        "EgenLOA": null,
        "EgenNybyggAr": 1986,
        "EgenProjVentFlode": "0,40000000000000002",
        "EgenSarskiltVardefull": null,
        "EgenSkyddadByggnad": null,
        "EgenSkyddadEllerVardefull": 0.0,
        "EgenSmaLagenheter": "Nej",
        "EgenTypkod": "320",
        "EgenTypkod_typ": "320 - Hyreshusenhet, bostäder",
        "EgiBeraknatVarde": "Nej",
        "EgiBerElProduktion": "",
        "EgiBerEngProduktion": "",
        "EgiElDirekt": null,
        "EgiElDirektUPPV": 0,
        "EgiElLuft": null,
        "EgiElLuftUPPV": 0,
        "EgiElVatten": null,
        "EgiElVattenUPPV": 104157,
        "EgiElVV": 54162,
        "EgiEnergianvandning": 272500.0,
        "EgiEnergiklass": "E",
        "EgiEnergiPrestanda": 118,
        "EgiFastighet": 41406,
        "EgiFjarrkyla": 0,
        "EgiFjarrvarme": null,
        "EgiFjarrvarmeUPPV": 0,
        "EgiFjarrvarmeVV": 0,
        "EgiFlis": null,
        "EgiFlisUPPV": 0,
        "EgiFlisVV": 0,
        "EgiForstaArManad": "1801",
        "EgiGas": null,
        "EgiGasUPPV": 0,
        "EgiGasVV": 0,
        "EgiGruppElDirekt": null,
        "EgiGruppElLuft": null,
        "EgiGruppElVatten": null,
        "EgiGruppFastighet": null,
        "EgiGruppFjarrkyla": null,
        "EgiGruppFjarrvarme": null,
        "EgiGruppFlis": null,
        "EgiGruppGas": null,
        "EgiGruppHushall": null,
        "EgiGruppKomfort": null,
        "EgiGruppOlja": null,
        "EgiGruppOvrBiobransle": null,
        "EgiGruppPumpFranluft": null,
        "EgiGruppPumpLuftLuft": null,
        "EgiGruppPumpLuftVatten": null,
        "EgiGruppPumpMark": null,
        "EgiGruppSolcell": "Nej",
        "EgiGruppSolvarme": "Nej",
        "EgiGruppVed": null,
        "EgiGruppVerksamhet": null,
        "EgiGruppVVBered": null,
        "EgiHushall": 0,
        "EgiKomfort": 0,
        "EgiKomfortTillagg": 0,
        "EgiNormKorrEI": null,
        "EgiNormKorrGD": null,
        "EgiOlja": null,
        "EgiOljaUPPV": 1484,
        "EgiOljaVV": 0,
        "EgiOvrBiobransle": null,
        "EgiOvrBiobransleUPPV": 0,
        "EgiOvrBiobransleVV": 0,
        "EgiPrimarenergianvandning": 434965.0,
        "EgiPrimarenergital": null,
        "EgiPumpFranluft": null,
        "EgiPumpFranluftUPPV": 46609,
        "EgiPumpLuftLuft": null,
        "EgiPumpLuftLuftUPPV": 0,
        "EgiPumpLuftVatten": null,
        "EgiPumpLuftVattenUPPV": 0,
        "EgiPumpMark": null,
        "EgiPumpMarkUPPV": 0,
        "EgiRefvarde1": 85,
        "EgiRefvarde2Max": 163,
        "EgiRefvarde2Min": null,
        "EgiRefvarde3": null,
        "EgiSistaArManad": "1812",
        "EgiSolcell": "",
        "EgiSolvarme": "",
        "EgiStationEI": "Stockholm-Bromma",
        "EgiStationGD": null,
        "EgiSumma1": null,
        "EgiSumma2": 247818,
        "EgiSumma3": null,
        "EgiSumma4": null,
        "EgiVaravEl": null,
        "EgiVed": null,
        "EgiVedUPPV": 0,
        "EgiVedVV": 0,
        "EgiVerksamhet": 0,
        "EgiVersion": 2019,
        "EgiVVBered": null,
        "FNR": 10433985,
        "Footprint_area_Sweref": 2100.5929435170438,
        "FormularId": 930001,
        "Godkand": "2019-03-29",
        "height": 17.6,
        "IdAdr": "Svartviksslingan 11",
        "IdEgnaHem": "0",
        "IdFastBet": "Svartvik 1",
        "IdHusnr": 2,
        "IdHuvudadress": "Nej",
        "IdKommun": "Stockholm",
        "IdKommunkod": 80,
        "IdLan": "Stockholms län",
        "IdLankod": 1,
        "IdPostnr": "16738",
        "IdPostort": "Bromma",
        "IdRapportLM": null,
        "LuftGruppFinnsluft": "Nej",
        "vaggid": "V17;V18;V21;V83;V86;V170;V171;V183;V289;V292;V381;V388;V452;V453;V454;V455;V503;V309;V310;V449;V504;V43;V44;V125;V126;V129;V130;V131;V132;V134;V135;V136;V138;V307;V325;V67;V94;V105;V106;V107;V108;V139;V140;V141;V142;V219;V221;V222;V223;V224;V225;V251;V252;V354;V355;V356;V372;V373;V375;V434;V435;V446;V89;V507;V308;V6;V7;V68;V87;V88;V253;V257;V374;V502;V143;V144;V305;V445;V376;V3;V4;V5;V26;V184;V207;V343;V25;V19;V22;V84;V187;V188;V189;V227;V274;V275;V276;V380;V127;V306",
        "VentDelvisProcent": null,
        "VentGruppGodkand": "Ja",
        "VentGruppKrav": "Ja",
        "VentTypF": "Nej",
        "VentTypFmed": "Ja",
        "VentTypFT": "Nej",
        "VentTypFTX": "Nej",
        "VentTypSjalvdrag": "Nej",
        "Version": "2.6"
      }
    }
  ]
}