{
  "type": "FeatureCollection",
  "name": "Buildings",
  "crs": {
    "type": "name",
    "properties": {
      "name": "EPSG:3006"
    }
  },
  "features": [
    {
      "type": "Feature",
      "geometry": {
        "type": "GeometryCollection",
        "geometries": [
          {
            "type": "MultiPolygon",
            "coordinates": [
              [
                [
                  [675961.8850040539, 6577869.685933255, 24.4],
                  [675995.6970042774, 6577888.092930118, 24.4],
                  [676006.3469996079, 6577855.787932182, 24.4],
                  [676020.1580044497, 6577863.205935302, 24.4],
                  [676005.4200028972, 6577907.91393729, 24.4],
                  [676003.21600334, 6577912.018928547, 24.4],
                  [675936.7050002456, 6577876.295938248, 24.4],
                  [675945.1260012494, 6577860.614932329, 24.4],
                  [675961.8850040539, 6577869.685933255, 24.4]
                ]
              ],
              [
                [
                  [675961.8850040539, 6577869.685933255, 0.0],
                  [675995.6970042774, 6577888.092930118, 0.0],
                  [676006.3469996079, 6577855.787932182, 0.0],
                  [676020.1580044497, 6577863.205935302, 0.0],
                  [676005.4200028972, 6577907.91393729, 0.0],
                  [676003.21600334, 6577912.018928547, 0.0],
                  [675936.7050002456, 6577876.295938248, 0.0],
                  [675945.1260012494, 6577860.614932329, 0.0],
                  [675961.8850040539, 6577869.685933255, 0.0]
                ]
              ]
            ]
          }
        ]
      },
      "properties": {
        "42P_ByggnadsAgare": "Stockholm_kommun",
        "42P_ByggnadsAgareGruppEnkel": "Allmännyttan",
        "42P_ByggnadsAgareGruppStor": "Kommunalt bolag",
        "43S_ARVARDE": 2008.0,
        "43S_BYGGAR": 2008.0,
        "43S_TILLBYAR": null,
        "43T_ARVARDE": 2008.0,
        "43T_BYGGAR": 2008.0,
        "43T_TILLBYAR": null,
        "50A_ByggnadsAndamal": "Flerbostadshus",
        "50A_ByggnadsKategori": "Flerbostadshus",
        "50A_UUID": "cbf18066-8de7-44ba-8f0f-48ad4d5fbc64",
        "byggnadsid": 18,
        "Deso": "0180C4440",
        "EgenAntalBolgh": 122.0,
        "EgenAntalKallarplan": 1.0,
        "EgenAntalPlan": 6.0,
        "EgenAntalTrapphus": 2.0,
        "EgenAtemp": 12531,
        "EgenAtempBad": 1.0,
        "EgenAtempBostad": 94.0,
        "EgenAtempButik": 0.0,
        "EgenAtempHotell": 0.0,
        "EgenAtempKontor": 5.0,
        "EgenAtempKopcentrum": 0.0,
        "EgenAtempLivsmedel": 0.0,
        "EgenAtempOvrig": 0.0,
        "EgenAtempOvrigaVad": null,
        "EgenAtempRestaurang": 0.0,
        "EgenAtempSkolor": 0.0,
        "EgenAtempSumma": 100,
        "EgenAtempTeater": 0.0,
        "EgenAtempVard": 0.0,
        "EgenAtempVardDag": 0.0,
        "EgenAvarmgarage": "1300",
        "EgenBOA": null,
        "EgenBRA": null,
        "EgenBTA": null,
        "EgenByggnadsKat": "Flerbostadshus",
        "EgenByggnadsTyp": "Mellanliggande",
        "EgenGruppAtemp": "Mätt",
        "EgenInstEleffektStorre": "Nej",
        "EgenKomplexitet": "Enkel",
        "EgenLOA": null,
        "EgenNybyggAr": 2008,
        "EgenProjVentFlode": "0,34999999999999998",
        "EgenSarskiltVardefull": null,
        "EgenSkyddadByggnad": null,
        "EgenSkyddadEllerVardefull": null,
        "EgenSmaLagenheter": "Nej",
        "EgenTypkod": "320",
        "EgenTypkod_typ": "320 - Hyreshusenhet, bostäder",
        "EgiBeraknatVarde": "Nej",
        "EgiBerElProduktion": "",
        "EgiBerEngProduktion": "",
        "EgiElDirekt": 0.0,
        "EgiElDirektUPPV": 0,
        "EgiElLuft": 0.0,
        "EgiElLuftUPPV": 0,
        "EgiElVatten": 0.0,
        "EgiElVattenUPPV": 0,
        "EgiElVV": 0,
        "EgiEnergianvandning": null,
        "EgiEnergiklass": "D",
        "EgiEnergiPrestanda": 90,
        "EgiFastighet": 134775,
        "EgiFjarrkyla": 0,
        "EgiFjarrvarme": 910382.0,
        "EgiFjarrvarmeUPPV": 679160,
        "EgiFjarrvarmeVV": 231222,
        "EgiFlis": 0.0,
        "EgiFlisUPPV": 0,
        "EgiFlisVV": 0,
        "EgiForstaArManad": "1701",
        "EgiGas": 0.0,
        "EgiGasUPPV": 0,
        "EgiGasVV": 0,
        "EgiGruppElDirekt": null,
        "EgiGruppElLuft": null,
        "EgiGruppElVatten": null,
        "EgiGruppFastighet": null,
        "EgiGruppFjarrkyla": null,
        "EgiGruppFjarrvarme": null,
        "EgiGruppFlis": null,
        "EgiGruppGas": null,
        "EgiGruppHushall": null,
        "EgiGruppKomfort": null,
        "EgiGruppOlja": null,
        "EgiGruppOvrBiobransle": null,
        "EgiGruppPumpFranluft": null,
        "EgiGruppPumpLuftLuft": null,
        "EgiGruppPumpLuftVatten": null,
        "EgiGruppPumpMark": null,
        "EgiGruppSolcell": "Nej",
        "EgiGruppSolvarme": "Nej",
        "EgiGruppVed": null,
        "EgiGruppVerksamhet": null,
        "EgiGruppVVBered": null,
        "EgiHushall": 0,
        "EgiKomfort": 0,
        "EgiKomfortTillagg": 0,
        "EgiNormKorrEI": 1130884.0,
        "EgiNormKorrGD": null,
        "EgiOlja": 0.0,
        "EgiOljaUPPV": 0,
        "EgiOljaVV": 0,
        "EgiOvrBiobransle": 0.0,
        "EgiOvrBiobransleUPPV": 0,
        "EgiOvrBiobransleVV": 0,
        "EgiPrimarenergianvandning": null,
        "EgiPrimarenergital": null,
        "EgiPumpFranluft": 0.0,
        "EgiPumpFranluftUPPV": 0,
        "EgiPumpLuftLuft": 0.0,
        "EgiPumpLuftLuftUPPV": 0,
        "EgiPumpLuftVatten": 0.0,
        "EgiPumpLuftVattenUPPV": 0,
        "EgiPumpMark": 0.0,
        "EgiPumpMarkUPPV": 0,
        "EgiRefvarde1": 79,
        "EgiRefvarde2Max": 109,
        "EgiRefvarde2Min": 88.0,
        "EgiRefvarde3": null,
        "EgiSistaArManad": "1712",
        "EgiSolcell": "",
        "EgiSolvarme": "",
        "EgiStationEI": "Stockholm-Bromma",
        "EgiStationGD": null,
        "EgiSumma1": 910382.0,
        "EgiSumma2": 1045157,
        "EgiSumma3": 1045157.0,
        "EgiSumma4": 134775.0,
        "EgiVaravEl": 11.0,
        "EgiVed": 0.0,
        "EgiVedUPPV": 0,
        "EgiVedVV": 0,
        "EgiVerksamhet": 20360,
        "EgiVersion": 2015,
        "EgiVVBered": 231222.0,
        "FNR": 10498894,
        "Footprint_area_Sweref": 2100.5929435170438,
        "FormularId": 875456,
        "Godkand": "2018-09-21",
        "height": 21,
        "IdAdr": "Förskeppsgatan 2",
        "IdEgnaHem": "0",
        "IdFastBet": "Redaren 2",
        "IdHusnr": 3,
        "IdHuvudadress": "Ja",
        "IdKommun": "Stockholm",
        "IdKommunkod": 80,
        "IdLan": "Stockholms län",
        "IdLankod": 1,
        "IdPostnr": "12061",
        "IdPostort": "Stockholm",
        "IdRapportLM": null,
        "LuftGruppFinnsluft": "Nej",
        "vaggid": "V17;V18;V21;V83;V86;V170;V171;V183;V289;V292;V381;V388;V452;V453;V454;V455;V503;V309;V310;V449;V504;V43;V44;V125;V126;V129;V130;V131;V132;V134;V135;V136;V138;V307;V325;V67;V94;V105;V106;V107;V108;V139;V140;V141;V142;V219;V221;V222;V223;V224;V225;V251;V252;V354;V355;V356;V372;V373;V375;V434;V435;V446;V89;V507;V308;V6;V7;V68;V87;V88;V253;V257;V374;V502;V143;V144;V305;V445;V376;V3;V4;V5;V26;V184;V207;V343;V25;V19;V22;V84;V187;V188;V189;V227;V274;V275;V276;V380;V127;V306",
        "VentDelvisProcent": 33.0,
        "VentGruppGodkand": "Delvis",
        "VentGruppKrav": "Ja",
        "VentTypF": "Ja",
        "VentTypFmed": "Nej",
        "VentTypFT": "Nej",
        "VentTypFTX": "Ja",
        "VentTypSjalvdrag": "Nej",
        "Version": "2.5"
      }
    },
    {
      "type": "Feature",
      "geometry": {
        "type": "GeometryCollection",
        "geometries": [
          {
            "type": "MultiPolygon",
            "coordinates": [
              [
                [
                  [675961.8850040539, 6577869.685933255, 24.4],
                  [675995.6970042774, 6577888.092930118, 24.4],
                  [676006.3469996079, 6577855.787932182, 24.4],
                  [676020.1580044497, 6577863.205935302, 24.4],
                  [676005.4200028972, 6577907.91393729, 24.4],
                  [676003.21600334, 6577912.018928547, 24.4],
                  [675936.7050002456, 6577876.295938248, 24.4],
                  [675945.1260012494, 6577860.614932329, 24.4],
                  [675961.8850040539, 6577869.685933255, 24.4]
                ]
              ],
              [
                [
                  [675961.8850040539, 6577869.685933255, 0.0],
                  [675995.6970042774, 6577888.092930118, 0.0],
                  [676006.3469996079, 6577855.787932182, 0.0],
                  [676020.1580044497, 6577863.205935302, 0.0],
                  [676005.4200028972, 6577907.91393729, 0.0],
                  [676003.21600334, 6577912.018928547, 0.0],
                  [675936.7050002456, 6577876.295938248, 0.0],
                  [675945.1260012494, 6577860.614932329, 0.0],
                  [675961.8850040539, 6577869.685933255, 0.0]
                ]
              ]
            ]
          }
        ]
      },
      "properties": {
        "42P_ByggnadsAgare": "Stockholm_kommun",
        "42P_ByggnadsAgareGruppEnkel": "Allmännyttan",
        "42P_ByggnadsAgareGruppStor": "Kommunalt bolag",
        "43S_ARVARDE": 2008.0,
        "43S_BYGGAR": 2008.0,
        "43S_TILLBYAR": null,
        "43T_ARVARDE": 2008.0,
        "43T_BYGGAR": 2008.0,
        "43T_TILLBYAR": null,
        "50A_ByggnadsAndamal": "Flerbostadshus",
        "50A_ByggnadsKategori": "Flerbostadshus",
        "50A_UUID": "cbf18066-8de7-44ba-8f0f-48ad4d5fbc64",
        "byggnadsid": 18,
        "Deso": "0180C4440",
        "EgenAntalBolgh": 122.0,
        "EgenAntalKallarplan": 1.0,
        "EgenAntalPlan": 6.0,
        "EgenAntalTrapphus": 2.0,
        "EgenAtemp": 12531,
        "EgenAtempBad": 1.0,
        "EgenAtempBostad": 94.0,
        "EgenAtempButik": 0.0,
        "EgenAtempHotell": 0.0,
        "EgenAtempKontor": 5.0,
        "EgenAtempKopcentrum": 0.0,
        "EgenAtempLivsmedel": 0.0,
        "EgenAtempOvrig": 0.0,
        "EgenAtempOvrigaVad": null,
        "EgenAtempRestaurang": 0.0,
        "EgenAtempSkolor": 0.0,
        "EgenAtempSumma": 100,
        "EgenAtempTeater": 0.0,
        "EgenAtempVard": 0.0,
        "EgenAtempVardDag": 0.0,
        "EgenAvarmgarage": "1300",
        "EgenBOA": null,
        "EgenBRA": null,
        "EgenBTA": null,
        "EgenByggnadsKat": "Flerbostadshus",
        "EgenByggnadsTyp": "Mellanliggande",
        "EgenGruppAtemp": "Mätt",
        "EgenInstEleffektStorre": "Nej",
        "EgenKomplexitet": "Enkel",
        "EgenLOA": null,
        "EgenNybyggAr": 2008,
        "EgenProjVentFlode": "0,34999999999999998",
        "EgenSarskiltVardefull": null,
        "EgenSkyddadByggnad": null,
        "EgenSkyddadEllerVardefull": null,
        "EgenSmaLagenheter": "Nej",
        "EgenTypkod": "320",
        "EgenTypkod_typ": "320 - Hyreshusenhet, bostäder",
        "EgiBeraknatVarde": "Nej",
        "EgiBerElProduktion": "",
        "EgiBerEngProduktion": "",
        "EgiElDirekt": 0.0,
        "EgiElDirektUPPV": 0,
        "EgiElLuft": 0.0,
        "EgiElLuftUPPV": 0,
        "EgiElVatten": 0.0,
        "EgiElVattenUPPV": 0,
        "EgiElVV": 0,
        "EgiEnergianvandning": null,
        "EgiEnergiklass": "D",
        "EgiEnergiPrestanda": 90,
        "EgiFastighet": 134775,
        "EgiFjarrkyla": 0,
        "EgiFjarrvarme": 910382.0,
        "EgiFjarrvarmeUPPV": 679160,
        "EgiFjarrvarmeVV": 231222,
        "EgiFlis": 0.0,
        "EgiFlisUPPV": 0,
        "EgiFlisVV": 0,
        "EgiForstaArManad": "1701",
        "EgiGas": 0.0,
        "EgiGasUPPV": 0,
        "EgiGasVV": 0,
        "EgiGruppElDirekt": null,
        "EgiGruppElLuft": null,
        "EgiGruppElVatten": null,
        "EgiGruppFastighet": null,
        "EgiGruppFjarrkyla": null,
        "EgiGruppFjarrvarme": null,
        "EgiGruppFlis": null,
        "EgiGruppGas": null,
        "EgiGruppHushall": null,
        "EgiGruppKomfort": null,
        "EgiGruppOlja": null,
        "EgiGruppOvrBiobransle": null,
        "EgiGruppPumpFranluft": null,
        "EgiGruppPumpLuftLuft": null,
        "EgiGruppPumpLuftVatten": null,
        "EgiGruppPumpMark": null,
        "EgiGruppSolcell": "Nej",
        "EgiGruppSolvarme": "Nej",
        "EgiGruppVed": null,
        "EgiGruppVerksamhet": null,
        "EgiGruppVVBered": null,
        "EgiHushall": 0,
        "EgiKomfort": 0,
        "EgiKomfortTillagg": 0,
        "EgiNormKorrEI": 1130884.0,
        "EgiNormKorrGD": null,
        "EgiOlja": 0.0,
        "EgiOljaUPPV": 0,
        "EgiOljaVV": 0,
        "EgiOvrBiobransle": 0.0,
        "EgiOvrBiobransleUPPV": 0,
        "EgiOvrBiobransleVV": 0,
        "EgiPrimarenergianvandning": null,
        "EgiPrimarenergital": null,
        "EgiPumpFranluft": 0.0,
        "EgiPumpFranluftUPPV": 0,
        "EgiPumpLuftLuft": 0.0,
        "EgiPumpLuftLuftUPPV": 0,
        "EgiPumpLuftVatten": 0.0,
        "EgiPumpLuftVattenUPPV": 0,
        "EgiPumpMark": 0.0,
        "EgiPumpMarkUPPV": 0,
        "EgiRefvarde1": 79,
        "EgiRefvarde2Max": 109,
        "EgiRefvarde2Min": 88.0,
        "EgiRefvarde3": null,
        "EgiSistaArManad": "1712",
        "EgiSolcell": "",
        "EgiSolvarme": "",
        "EgiStationEI": "Stockholm-Bromma",
        "EgiStationGD": null,
        "EgiSumma1": 910382.0,
        "EgiSumma2": 1045157,
        "EgiSumma3": 1045157.0,
        "EgiSumma4": 134775.0,
        "EgiVaravEl": 11.0,
        "EgiVed": 0.0,
        "EgiVedUPPV": 0,
        "EgiVedVV": 0,
        "EgiVerksamhet": 20360,
        "EgiVersion": 2015,
        "EgiVVBered": 231222.0,
        "FNR": 10498894,
        "Footprint_area_Sweref": 2100.5929435170438,
        "FormularId": 875456,
        "Godkand": "2018-09-21",
        "height": 21,
        "IdAdr": "Förskeppsgatan 2",
        "IdEgnaHem": "0",
        "IdFastBet": "Redaren 2",
        "IdHusnr": 3,
        "IdHuvudadress": "Ja",
        "IdKommun": "Stockholm",
        "IdKommunkod": 80,
        "IdLan": "Stockholms län",
        "IdLankod": 1,
        "IdPostnr": "12061",
        "IdPostort": "Stockholm",
        "IdRapportLM": null,
        "LuftGruppFinnsluft": "Nej",
        "vaggid": "V17;V18;V21;V83;V86;V170;V171;V183;V289;V292;V381;V388;V452;V453;V454;V455;V503;V309;V310;V449;V504;V43;V44;V125;V126;V129;V130;V131;V132;V134;V135;V136;V138;V307;V325;V67;V94;V105;V106;V107;V108;V139;V140;V141;V142;V219;V221;V222;V223;V224;V225;V251;V252;V354;V355;V356;V372;V373;V375;V434;V435;V446;V89;V507;V308;V6;V7;V68;V87;V88;V253;V257;V374;V502;V143;V144;V305;V445;V376;V3;V4;V5;V26;V184;V207;V343;V25;V19;V22;V84;V187;V188;V189;V227;V274;V275;V276;V380;V127;V306",
        "VentDelvisProcent": 33.0,
        "VentGruppGodkand": "Delvis",
        "VentGruppKrav": "Ja",
        "VentTypF": "Ja",
        "VentTypFmed": "Nej",
        "VentTypFT": "Nej",
        "VentTypFTX": "Ja",
        "VentTypSjalvdrag": "Nej",
        "Version": "2.5"
      }
    }
  ]
}