{
  "type": "FeatureCollection",
  "name": "Buildings",
  "crs": {
    "type": "name",
    "properties": {
      "name": "EPSG:3006"
    }
  },
  "features": [
    {
      "type": "Feature",
      "geometry": {
        "type": "GeometryCollection",
        "geometries": [
          {
            "type": "MultiPolygon",
            "coordinates": [
              [
                [
                  [673518.4720005251, 6582130.371937037, 24.8],
                  [673550.6750018164, 6582073.6179373665, 24.8],
                  [673563.7749997863, 6582081.00993656, 24.8],
                  [673531.7129988675, 6582137.823938734, 24.8],
                  [673518.4720005251, 6582130.371937037, 24.8]
                ]
              ],
              [
                [
                  [673518.4720005251, 6582130.371937037, 0.0],
                  [673550.6750018164, 6582073.6179373665, 0.0],
                  [673563.7749997863, 6582081.00993656, 0.0],
                  [673531.7129988675, 6582137.823938734, 0.0],
                  [673518.4720005251, 6582130.371937037, 0.0]
                ]
              ]
            ]
          }
        ]
      },
      "properties": {
        "42P_ByggnadsAgare": "BOSTADSRÄTTSFÖRENINGEN ADLERN MINDRE",
        "42P_ByggnadsAgareGruppEnkel": "Bostadsrättsförening",
        "42P_ByggnadsAgareGruppStor": "Liten bostadsrättsförening",
        "43S_ARVARDE": 1955.0,
        "43S_BYGGAR": 1937.0,
        "43S_TILLBYAR": 2009.0,
        "43T_ARVARDE": 1955.0,
        "43T_BYGGAR": 1937.0,
        "43T_TILLBYAR": 2009.0,
        "50A_ByggnadsAndamal": "Flerbostadshus",
        "50A_ByggnadsKategori": "Flerbostadshus",
        "50A_UUID": "c7b61426-bdba-498e-93dd-be1c4ca1166d",
        "byggnadsid": 18,
        "Deso": "0180C4440",
        "EgenAntalBolgh": 85.0,
        "EgenAntalKallarplan": 1.0,
        "EgenAntalPlan": 7.0,
        "EgenAntalTrapphus": 3.0,
        "EgenAtemp": 9350,
        "EgenAtempBad": "",
        "EgenAtempBostad": 83.0,
        "EgenAtempButik": 13.0,
        "EgenAtempHotell": "",
        "EgenAtempKontor": "",
        "EgenAtempKopcentrum": "",
        "EgenAtempLivsmedel": "",
        "EgenAtempOvrig": "",
        "EgenAtempOvrigaVad": null,
        "EgenAtempRestaurang": 4.0,
        "EgenAtempSkolor": "",
        "EgenAtempSumma": 100,
        "EgenAtempTeater": "",
        "EgenAtempVard": "",
        "EgenAtempVardDag": "",
        "EgenAvarmgarage": "0",
        "EgenBOA": null,
        "EgenBRA": null,
        "EgenBTA": null,
        "EgenByggnadsKat": "Flerbostadshus",
        "EgenByggnadsTyp": "Mellanliggande",
        "EgenGruppAtemp": null,
        "EgenInstEleffektStorre": "Nej",
        "EgenKomplexitet": "Enkel",
        "EgenLOA": null,
        "EgenNybyggAr": 1938,
        "EgenProjVentFlode": "0,34999999999999998",
        "EgenSarskiltVardefull": null,
        "EgenSkyddadByggnad": null,
        "EgenSkyddadEllerVardefull": 0.0,
        "EgenSmaLagenheter": "Nej",
        "EgenTypkod": "321A",
        "EgenTypkod_typ": "321A - Hyreshusenhet, bostäder >= 50%",
        "EgiBeraknatVarde": "Nej",
        "EgiBerElProduktion": "",
        "EgiBerEngProduktion": "",
        "EgiElDirekt": null,
        "EgiElDirektUPPV": 0,
        "EgiElLuft": null,
        "EgiElLuftUPPV": 0,
        "EgiElVatten": null,
        "EgiElVattenUPPV": 0,
        "EgiElVV": 0,
        "EgiEnergianvandning": 1225445.0,
        "EgiEnergiklass": "E",
        "EgiEnergiPrestanda": 135,
        "EgiFastighet": 67292,
        "EgiFjarrkyla": 0,
        "EgiFjarrvarme": null,
        "EgiFjarrvarmeUPPV": 819970,
        "EgiFjarrvarmeVV": 197180,
        "EgiFlis": null,
        "EgiFlisUPPV": 0,
        "EgiFlisVV": 0,
        "EgiForstaArManad": "1901",
        "EgiGas": null,
        "EgiGasUPPV": 0,
        "EgiGasVV": 0,
        "EgiGruppElDirekt": null,
        "EgiGruppElLuft": null,
        "EgiGruppElVatten": null,
        "EgiGruppFastighet": null,
        "EgiGruppFjarrkyla": null,
        "EgiGruppFjarrvarme": null,
        "EgiGruppFlis": null,
        "EgiGruppGas": null,
        "EgiGruppHushall": null,
        "EgiGruppKomfort": null,
        "EgiGruppOlja": null,
        "EgiGruppOvrBiobransle": null,
        "EgiGruppPumpFranluft": null,
        "EgiGruppPumpLuftLuft": null,
        "EgiGruppPumpLuftVatten": null,
        "EgiGruppPumpMark": null,
        "EgiGruppSolcell": "Nej",
        "EgiGruppSolvarme": "Nej",
        "EgiGruppVed": null,
        "EgiGruppVerksamhet": null,
        "EgiGruppVVBered": null,
        "EgiHushall": 0,
        "EgiKomfort": 0,
        "EgiKomfortTillagg": 0,
        "EgiNormKorrEI": null,
        "EgiNormKorrGD": null,
        "EgiOlja": null,
        "EgiOljaUPPV": 0,
        "EgiOljaVV": 0,
        "EgiOvrBiobransle": null,
        "EgiOvrBiobransleUPPV": 0,
        "EgiOvrBiobransleVV": 0,
        "EgiPrimarenergianvandning": 1265821.0,
        "EgiPrimarenergital": null,
        "EgiPumpFranluft": null,
        "EgiPumpFranluftUPPV": 0,
        "EgiPumpLuftLuft": null,
        "EgiPumpLuftLuftUPPV": 0,
        "EgiPumpLuftVatten": null,
        "EgiPumpLuftVattenUPPV": 0,
        "EgiPumpMark": null,
        "EgiPumpMarkUPPV": 0,
        "EgiRefvarde1": 84,
        "EgiRefvarde2Max": 165,
        "EgiRefvarde2Min": null,
        "EgiRefvarde3": null,
        "EgiSistaArManad": "1912",
        "EgiSolcell": "",
        "EgiSolvarme": "",
        "EgiStationEI": "Stockholm",
        "EgiStationGD": null,
        "EgiSumma1": null,
        "EgiSumma2": 1084442,
        "EgiSumma3": null,
        "EgiSumma4": null,
        "EgiVaravEl": null,
        "EgiVed": null,
        "EgiVedUPPV": 0,
        "EgiVedVV": 0,
        "EgiVerksamhet": 0,
        "EgiVersion": 2019,
        "EgiVVBered": null,
        "FNR": 10057206,
        "Footprint_area_Sweref": 2100.5929435170438,
        "FormularId": 1112228,
        "Godkand": "2020-08-31",
        "height": 21,
        "IdAdr": "Norrtullsgatan 11",
        "IdEgnaHem": "0",
        "IdFastBet": "Adlern Mindre 32",
        "IdHusnr": 1,
        "IdHuvudadress": "Ja",
        "IdKommun": "Stockholm",
        "IdKommunkod": 80,
        "IdLan": "Stockholms län",
        "IdLankod": 1,
        "IdPostnr": "11329",
        "IdPostort": "Stockholm",
        "IdRapportLM": null,
        "LuftGruppFinnsluft": null,
        "vaggid": "V17;V18;V21;V83;V86;V170;V171;V183;V289;V292;V381;V388;V452;V453;V454;V455;V503;V309;V310;V449;V504;V43;V44;V125;V126;V129;V130;V131;V132;V134;V135;V136;V138;V307;V325;V67;V94;V105;V106;V107;V108;V139;V140;V141;V142;V219;V221;V222;V223;V224;V225;V251;V252;V354;V355;V356;V372;V373;V375;V434;V435;V446;V89;V507;V308;V6;V7;V68;V87;V88;V253;V257;V374;V502;V143;V144;V305;V445;V376;V3;V4;V5;V26;V184;V207;V343;V25;V19;V22;V84;V187;V188;V189;V227;V274;V275;V276;V380;V127;V306",
        "VentDelvisProcent": null,
        "VentGruppGodkand": "Ja",
        "VentGruppKrav": "Ja",
        "VentTypF": "Ja",
        "VentTypFmed": "Nej",
        "VentTypFT": "Nej",
        "VentTypFTX": "Ja",
        "VentTypSjalvdrag": "Nej",
        "Version": "2.7"
      }
    }
  ]
}